{
  "type": "FeatureCollection",
  "features": [
    {
      "type": "Feature",
      "properties": {
        "norad_id": 66711,
        "name": "FLOCK 4H-8",
        "group": "last-30-days",
        "lat": 8.064168109830982,
        "lon": -110.02956585299859,
        "alt_km": 534.0832106892713,
        "timestamp": "2025-12-23T07:45:08.115681+00:00",
        "meta_object_name": "FLOCK 4H-8",
        "meta_object_id": "2025-276AX",
        "meta_epoch": "2025-12-22T21:28:21.387936",
        "meta_mean_motion": 15.13819951,
        "meta_eccentricity": 0.00107375,
        "meta_inclination": 97.4433,
        "meta_ra_of_asc_node": 68.4911,
        "meta_arg_of_pericenter": 64.6838,
        "meta_mean_anomaly": 295.5505,
        "meta_ephemeris_type": 0,
        "meta_classification_type": "U",
        "meta_norad_cat_id": 66711,
        "meta_element_set_no": 999,
        "meta_rev_at_epoch": 366,
        "meta_bstar": -0.11560989,
        "meta_mean_motion_dot": -0.01897114,
        "meta_mean_motion_ddot": 0,
        "tle_line1": "1 66711U 25276AX  25356.89469199 -.01897114  00000+0 -11561+0 0  9994",
        "tle_line2": "2 66711  97.4433  68.4911 0010737  64.6838 295.5505 15.13819951  3664"
      },
      "geometry": {
        "type": "Point",
        "coordinates": [
          -110.02956585299859,
          8.064168109830982
        ]
      }
    },
    {
      "type": "Feature",
      "properties": {
        "norad_id": 66712,
        "name": "FLOCK 4H-9",
        "group": "last-30-days",
        "lat": -43.4907975368362,
        "lon": -118.19465586101043,
        "alt_km": 516.9993350931773,
        "timestamp": "2025-12-23T07:45:08.115694+00:00",
        "meta_object_name": "FLOCK 4H-9",
        "meta_object_id": "2025-276AY",
        "meta_epoch": "2025-12-22T21:16:34.448448",
        "meta_mean_motion": 15.17918122,
        "meta_eccentricity": 0.00026925,
        "meta_inclination": 97.4425,
        "meta_ra_of_asc_node": 68.4998,
        "meta_arg_of_pericenter": 215.5676,
        "meta_mean_anomaly": 144.5379,
        "meta_ephemeris_type": 0,
        "meta_classification_type": "U",
        "meta_norad_cat_id": 66712,
        "meta_element_set_no": 999,
        "meta_rev_at_epoch": 366,
        "meta_bstar": 0.00056939581,
        "meta_mean_motion_dot": 0.00011493,
        "meta_mean_motion_ddot": 0,
        "tle_line1": "1 66712U 25276AY  25356.88650982  .00011493  00000+0  56940-3 0  9995",
        "tle_line2": "2 66712  97.4425  68.4998 0002692 215.5676 144.5379 15.17918122  3665"
      },
      "geometry": {
        "type": "Point",
        "coordinates": [
          -118.19465586101043,
          -43.4907975368362
        ]
      }
    },
    {
      "type": "Feature",
      "properties": {
        "norad_id": 66713,
        "name": "FLOCK 4H-10",
        "group": "last-30-days",
        "lat": 14.903920825457492,
        "lon": -109.11481918031804,
        "alt_km": 514.5535395583165,
        "timestamp": "2025-12-23T07:45:08.115705+00:00",
        "meta_object_name": "FLOCK 4H-10",
        "meta_object_id": "2025-276AZ",
        "meta_epoch": "2025-12-22T19:56:53.544192",
        "meta_mean_motion": 15.17278824,
        "meta_eccentricity": 0.00036603,
        "meta_inclination": 97.4398,
        "meta_ra_of_asc_node": 68.4091,
        "meta_arg_of_pericenter": 246.9816,
        "meta_mean_anomaly": 113.1032,
        "meta_ephemeris_type": 0,
        "meta_classification_type": "U",
        "meta_norad_cat_id": 66713,
        "meta_element_set_no": 999,
        "meta_rev_at_epoch": 365,
        "meta_bstar": 0.00077109887,
        "meta_mean_motion_dot": 0.00015314,
        "meta_mean_motion_ddot": 0,
        "tle_line1": "1 66713U 25276AZ  25356.83117528  .00015314  00000+0  77110-3 0  9993",
        "tle_line2": "2 66713  97.4398  68.4091 0003660 246.9816 113.1032 15.17278824  3654"
      },
      "geometry": {
        "type": "Point",
        "coordinates": [
          -109.11481918031804,
          14.903920825457492
        ]
      }
    },
    {
      "type": "Feature",
      "properties": {
        "norad_id": 66714,
        "name": "FLOCK 4H-11",
        "group": "last-30-days",
        "lat": -14.30187296720656,
        "lon": -112.99481529347892,
        "alt_km": 517.0154903069924,
        "timestamp": "2025-12-23T07:45:08.115715+00:00",
        "meta_object_name": "FLOCK 4H-11",
        "meta_object_id": "2025-276BA",
        "meta_epoch": "2025-12-22T15:04:33.788640",
        "meta_mean_motion": 15.17781228,
        "meta_eccentricity": 0.00021529,
        "meta_inclination": 97.4416,
        "meta_ra_of_asc_node": 68.2317,
        "meta_arg_of_pericenter": 278.4399,
        "meta_mean_anomaly": 81.6591,
        "meta_ephemeris_type": 0,
        "meta_classification_type": "U",
        "meta_norad_cat_id": 66714,
        "meta_element_set_no": 999,
        "meta_rev_at_epoch": 362,
        "meta_bstar": 0.00068051358,
        "meta_mean_motion_dot": 0.00013699,
        "meta_mean_motion_ddot": 0,
        "tle_line1": "1 66714U 25276BA  25356.62816885  .00013699  00000+0  68051-3 0  9991",
        "tle_line2": "2 66714  97.4416  68.2317 0002152 278.4399  81.6591 15.17781228  3629"
      },
      "geometry": {
        "type": "Point",
        "coordinates": [
          -112.99481529347892,
          -14.30187296720656
        ]
      }
    },
    {
      "type": "Feature",
      "properties": {
        "norad_id": 66715,
        "name": "FLOCK 4H-12",
        "group": "last-30-days",
        "lat": -54.99554623224217,
        "lon": -121.83746881603544,
        "alt_km": 517.8721163632772,
        "timestamp": "2025-12-23T07:45:08.115725+00:00",
        "meta_object_name": "FLOCK 4H-12",
        "meta_object_id": "2025-276BB",
        "meta_epoch": "2025-12-22T21:13:32.776032",
        "meta_mean_motion": 15.18077418,
        "meta_eccentricity": 0.00019375,
        "meta_inclination": 97.4394,
        "meta_ra_of_asc_node": 68.4847,
        "meta_arg_of_pericenter": 185.2659,
        "meta_mean_anomaly": 174.8555,
        "meta_ephemeris_type": 0,
        "meta_classification_type": "U",
        "meta_norad_cat_id": 66715,
        "meta_element_set_no": 999,
        "meta_rev_at_epoch": 397,
        "meta_bstar": 0.00055346515,
        "meta_mean_motion_dot": 0.0001122,
        "meta_mean_motion_ddot": 0,
        "tle_line1": "1 66715U 25276BB  25356.88440713  .00011220  00000+0  55347-3 0  9995",
        "tle_line2": "2 66715  97.4394  68.4847 0001937 185.2659 174.8555 15.18077418  3972"
      },
      "geometry": {
        "type": "Point",
        "coordinates": [
          -121.83746881603544,
          -54.99554623224217
        ]
      }
    },
    {
      "type": "Feature",
      "properties": {
        "norad_id": 66716,
        "name": "FLOCK 4H-13",
        "group": "last-30-days",
        "lat": -66.03693997971425,
        "lon": -128.17071251605262,
        "alt_km": 518.9066459511678,
        "timestamp": "2025-12-23T07:45:08.115737+00:00",
        "meta_object_name": "FLOCK 4H-13",
        "meta_object_id": "2025-276BC",
        "meta_epoch": "2025-12-22T21:10:34.176000",
        "meta_mean_motion": 15.18190815,
        "meta_eccentricity": 0.00016617,
        "meta_inclination": 97.4432,
        "meta_ra_of_asc_node": 68.5021,
        "meta_arg_of_pericenter": 139.9033,
        "meta_mean_anomaly": 220.2324,
        "meta_ephemeris_type": 0,
        "meta_classification_type": "U",
        "meta_norad_cat_id": 66716,
        "meta_element_set_no": 999,
        "meta_rev_at_epoch": 366,
        "meta_bstar": 0.00055448316,
        "meta_mean_motion_dot": 0.00011278,
        "meta_mean_motion_ddot": 0,
        "tle_line1": "1 66716U 25276BC  25356.88234000  .00011278  00000+0  55448-3 0  9991",
        "tle_line2": "2 66716  97.4432  68.5021 0001661 139.9033 220.2324 15.18190815  3660"
      },
      "geometry": {
        "type": "Point",
        "coordinates": [
          -128.17071251605262,
          -66.03693997971425
        ]
      }
    },
    {
      "type": "Feature",
      "properties": {
        "norad_id": 66717,
        "name": "FLOCK 4H-14",
        "group": "last-30-days",
        "lat": -76.07890578487661,
        "lon": -142.889016785093,
        "alt_km": 518.8300143542501,
        "timestamp": "2025-12-23T07:45:08.115749+00:00",
        "meta_object_name": "FLOCK 4H-14",
        "meta_object_id": "2025-276BD",
        "meta_epoch": "2025-12-22T19:32:48.709824",
        "meta_mean_motion": 15.1834021,
        "meta_eccentricity": 0.00016066,
        "meta_inclination": 97.4416,
        "meta_ra_of_asc_node": 68.4358,
        "meta_arg_of_pericenter": 133.9199,
        "meta_mean_anomaly": 226.2168,
        "meta_ephemeris_type": 0,
        "meta_classification_type": "U",
        "meta_norad_cat_id": 66717,
        "meta_element_set_no": 999,
        "meta_rev_at_epoch": 290,
        "meta_bstar": 0.00035799022,
        "meta_mean_motion_dot": 7.285e-05,
        "meta_mean_motion_ddot": 0,
        "tle_line1": "1 66717U 25276BD  25356.81445266  .00007285  00000+0  35799-3 0  9993",
        "tle_line2": "2 66717  97.4416  68.4358 0001606 133.9199 226.2168 15.18340210  2905"
      },
      "geometry": {
        "type": "Point",
        "coordinates": [
          -142.889016785093,
          -76.07890578487661
        ]
      }
    }
  ]
}